{
  "type": "FeatureCollection",
  "features": [
    {
      "type": "Feature",
      "properties": {
        "norad_id": 33376,
        "name": "GALAXY 19 (G-19)",
        "group": "intelsat",
        "lat": 0.029686418673559537,
        "lon": 79.273628048049,
        "alt_km": 35796.497718565595,
        "timestamp": "2025-12-21T05:44:51.243557+00:00",
        "meta_object_name": "GALAXY 19 (G-19)",
        "meta_object_id": "2008-045A",
        "meta_epoch": "2025-12-20T16:11:29.094720",
        "meta_mean_motion": 1.00271403,
        "meta_eccentricity": 0.00025195,
        "meta_inclination": 0.0149,
        "meta_ra_of_asc_node": 308.6931,
        "meta_arg_of_pericenter": 326.0211,
        "meta_mean_anomaly": 320.6622,
        "meta_ephemeris_type": 0,
        "meta_classification_type": "U",
        "meta_norad_cat_id": 33376,
        "meta_element_set_no": 999,
        "meta_rev_at_epoch": 6311,
        "meta_bstar": 0,
        "meta_mean_motion_dot": -1.16e-06,
        "meta_mean_motion_ddot": 0,
        "tle_line1": "1 33376U 08045A   25354.67464230 -.00000116  00000+0  00000+0 0  9997",
        "tle_line2": "2 33376   0.0149 308.6931 0002519 326.0211 320.6622  1.00271403 63110"
      },
      "geometry": {
        "type": "Point",
        "coordinates": [
          79.273628048049,
          0.029686418673559537
        ]
      }
    },
    {
      "type": "Feature",
      "properties": {
        "norad_id": 35493,
        "name": "FM-5",
        "group": "intelsat",
        "lat": 0.02521115659042049,
        "lon": 90.11764714581359,
        "alt_km": 35784.2678950677,
        "timestamp": "2025-12-21T05:44:51.243570+00:00",
        "meta_object_name": "FM-5",
        "meta_object_id": "2009-034A",
        "meta_epoch": "2025-12-20T21:22:50.191680",
        "meta_mean_motion": 1.00271574,
        "meta_eccentricity": 0.00011137,
        "meta_inclination": 0.0228,
        "meta_ra_of_asc_node": 291.0132,
        "meta_arg_of_pericenter": 225.4052,
        "meta_mean_anomaly": 167.8719,
        "meta_ephemeris_type": 0,
        "meta_classification_type": "U",
        "meta_norad_cat_id": 35493,
        "meta_element_set_no": 999,
        "meta_rev_at_epoch": 4485,
        "meta_bstar": 0,
        "meta_mean_motion_dot": -1.77e-06,
        "meta_mean_motion_ddot": 0,
        "tle_line1": "1 35493U 09034A   25354.89085870 -.00000177  00000+0  00000+0 0  9998",
        "tle_line2": "2 35493   0.0228 291.0132 0001113 225.4052 167.8719  1.00271574 44859"
      },
      "geometry": {
        "type": "Point",
        "coordinates": [
          90.11764714581359,
          0.02521115659042049
        ]
      }
    },
    {
      "type": "Feature",
      "properties": {
        "norad_id": 36097,
        "name": "INTELSAT 14 (IS-14)",
        "group": "intelsat",
        "lat": 0.03070245278407687,
        "lon": 131.25981091212466,
        "alt_km": 35795.43499263398,
        "timestamp": "2025-12-21T05:44:51.243581+00:00",
        "meta_object_name": "INTELSAT 14 (IS-14)",
        "meta_object_id": "2009-064A",
        "meta_epoch": "2025-12-20T21:34:34.069152",
        "meta_mean_motion": 1.0027075,
        "meta_eccentricity": 0.00024598,
        "meta_inclination": 0.0108,
        "meta_ra_of_asc_node": 9.8926,
        "meta_arg_of_pericenter": 271.5503,
        "meta_mean_anomaly": 86.9339,
        "meta_ephemeris_type": 0,
        "meta_classification_type": "U",
        "meta_norad_cat_id": 36097,
        "meta_element_set_no": 999,
        "meta_rev_at_epoch": 5881,
        "meta_bstar": 0,
        "meta_mean_motion_dot": -2.5e-06,
        "meta_mean_motion_ddot": 0,
        "tle_line1": "1 36097U 09064A   25354.89900543 -.00000250  00000+0  00000+0 0  9997",
        "tle_line2": "2 36097   0.0108   9.8926 0002459 271.5503  86.9339  1.00270750 58815"
      },
      "geometry": {
        "type": "Point",
        "coordinates": [
          131.25981091212466,
          0.03070245278407687
        ]
      }
    },
    {
      "type": "Feature",
      "properties": {
        "norad_id": 36106,
        "name": "INTELSAT 15 (IS-15)",
        "group": "intelsat",
        "lat": -0.0402045343354489,
        "lon": -98.5791173579804,
        "alt_km": 35777.473346068284,
        "timestamp": "2025-12-21T05:44:51.243593+00:00",
        "meta_object_name": "INTELSAT 15 (IS-15)",
        "meta_object_id": "2009-067A",
        "meta_epoch": "2025-12-20T22:11:45.506400",
        "meta_mean_motion": 1.00271866,
        "meta_eccentricity": 0.00021513,
        "meta_inclination": 0.0148,
        "meta_ra_of_asc_node": 340.2199,
        "meta_arg_of_pericenter": 300.4316,
        "meta_mean_anomaly": 227.2022,
        "meta_ephemeris_type": 0,
        "meta_classification_type": "U",
        "meta_norad_cat_id": 36106,
        "meta_element_set_no": 999,
        "meta_rev_at_epoch": 3944,
        "meta_bstar": 0,
        "meta_mean_motion_dot": -1.62e-06,
        "meta_mean_motion_ddot": 0,
        "tle_line1": "1 36106U 09067A   25354.92483225 -.00000162  00000+0  00000+0 0  9990",
        "tle_line2": "2 36106   0.0148 340.2199 0002151 300.4316 227.2022  1.00271866 39443"
      },
      "geometry": {
        "type": "Point",
        "coordinates": [
          -98.5791173579804,
          -0.0402045343354489
        ]
      }
    },
    {
      "type": "Feature",
      "properties": {
        "norad_id": 36131,
        "name": "DIRECTV 12",
        "group": "intelsat",
        "lat": 0.009478021253940002,
        "lon": 73.55575599467149,
        "alt_km": 35786.12341862214,
        "timestamp": "2025-12-21T05:44:51.243605+00:00",
        "meta_object_name": "DIRECTV 12",
        "meta_object_id": "2009-075A",
        "meta_epoch": "2025-12-20T21:18:05.647104",
        "meta_mean_motion": 1.00270531,
        "meta_eccentricity": 3.37e-05,
        "meta_inclination": 0.0166,
        "meta_ra_of_asc_node": 99.1337,
        "meta_arg_of_pericenter": 257.3135,
        "meta_mean_anomaly": 310.0782,
        "meta_ephemeris_type": 0,
        "meta_classification_type": "U",
        "meta_norad_cat_id": 36131,
        "meta_element_set_no": 999,
        "meta_rev_at_epoch": 4476,
        "meta_bstar": 0,
        "meta_mean_motion_dot": -8e-07,
        "meta_mean_motion_ddot": 0,
        "tle_line1": "1 36131U 09075A   25354.88756536 -.00000080  00000+0  00000+0 0  9999",
        "tle_line2": "2 36131   0.0166  99.1337 0000337 257.3135 310.0782  1.00270531 44761"
      },
      "geometry": {
        "type": "Point",
        "coordinates": [
          73.55575599467149,
          0.009478021253940002
        ]
      }
    },
    {
      "type": "Feature",
      "properties": {
        "norad_id": 36397,
        "name": "INTELSAT 16 (IS-16)",
        "group": "intelsat",
        "lat": 0.03689398708058272,
        "lon": 100.07156338382383,
        "alt_km": 35793.974471437636,
        "timestamp": "2025-12-21T05:44:51.243617+00:00",
        "meta_object_name": "INTELSAT 16 (IS-16)",
        "meta_object_id": "2010-006A",
        "meta_epoch": "2025-12-20T21:25:42.417120",
        "meta_mean_motion": 1.00271033,
        "meta_eccentricity": 0.0001835,
        "meta_inclination": 0.0119,
        "meta_ra_of_asc_node": 348.8016,
        "meta_arg_of_pericenter": 280.9561,
        "meta_mean_anomaly": 65.199,
        "meta_ephemeris_type": 0,
        "meta_classification_type": "U",
        "meta_norad_cat_id": 36397,
        "meta_element_set_no": 999,
        "meta_rev_at_epoch": 5786,
        "meta_bstar": 0,
        "meta_mean_motion_dot": -2.21e-06,
        "meta_mean_motion_ddot": 0,
        "tle_line1": "1 36397U 10006A   25354.89285205 -.00000221  00000+0  00000+0 0  9997",
        "tle_line2": "2 36397   0.0119 348.8016 0001835 280.9561  65.1990  1.00271033 57862"
      },
      "geometry": {
        "type": "Point",
        "coordinates": [
          100.07156338382383,
          0.03689398708058272
        ]
      }
    },
    {
      "type": "Feature",
      "properties": {
        "norad_id": 37185,
        "name": "XM-5",
        "group": "intelsat",
        "lat": 0.05204960933136978,
        "lon": 61.048923239828504,
        "alt_km": 35786.51828037577,
        "timestamp": "2025-12-21T05:44:51.243629+00:00",
        "meta_object_name": "XM-5",
        "meta_object_id": "2010-053A",
        "meta_epoch": "2025-12-20T21:14:35.981088",
        "meta_mean_motion": 1.00269291,
        "meta_eccentricity": 0.00022437,
        "meta_inclination": 0.0661,
        "meta_ra_of_asc_node": 270.9496,
        "meta_arg_of_pericenter": 238.8649,
        "meta_mean_anomaly": 143.3591,
        "meta_ephemeris_type": 0,
        "meta_classification_type": "U",
        "meta_norad_cat_id": 37185,
        "meta_element_set_no": 999,
        "meta_rev_at_epoch": 5569,
        "meta_bstar": 0,
        "meta_mean_motion_dot": 0,
        "meta_mean_motion_ddot": 0,
        "tle_line1": "1 37185U 10053A   25354.88513867  .00000000  00000+0  00000+0 0  9996",
        "tle_line2": "2 37185   0.0661 270.9496 0002243 238.8649 143.3591  1.00269291 55698"
      },
      "geometry": {
        "type": "Point",
        "coordinates": [
          61.048923239828504,
          0.05204960933136978
        ]
      }
    }
  ]
}